#dP2019 12 10  0  0  0.00000000      96 __u+U ITR00 FIT  IAC
## 2083 172800.00000000   900.00000000 58827 0.0000000000000
+  112   C02C03C04C05C06C07C08C09C10C11C12C13C14C16C19C20C21
+        C22C23C24C25C26C27C28C29C30C32C33C34C35C36C37E01E02
+        E03E04E05E07E08E09E11E12E13E14E15E18E19E21E24E25E26
+        E27E30E31E33E36G01G02G03G05G06G07G08G09G10G11G12G13
+        G14G15G16G17G18G19G20G21G22G23G24G25G26G27G28G29G30
+        G31G32J01J02J03J07R01R02R03R05R07R08R09R11R12R13R14
+        R15R16R17R18R19R20R21R22R23R26  0  0  0  0  0  0  0
++        13 13 13 13  8  8  9  8  8  8  8  8  8  8  7  7  8
++         8  7  8  8  7  8  8  8  8  8  8  8  8  8  8  4  4
++         5  4  4  4  4  4  5  4  4  4  4  4  4  4  5  4  4
++         4  4  5  4  5  3  3  3  3  3  3  3  3  3  3  3  3
++         3  3  3  3  4  3  3  3  3  3  4  3  3  3  3  3  3
++         3  3  8  8  8 14  6  5  5  5  6  5  5  5  6  6  5
++         5  6  5  5  6  6  6  5  5  8  0  0  0  0  0  0  0
%c M  cc GPS ccc cccc cccc cccc cccc ccccc ccccc ccccc ccccc
%c cc cc ccc ccc cccc cccc cccc cccc ccccc ccccc ccccc ccccc
%f  0.0000000  0.000000000  0.00000000000  0.000000000000000
%f  0.0000000  0.000000000  0.00000000000  0.000000000000000
%i    0    0    0    0      0      0      0      0         0
%i    0    0    0    0      0      0      0      0         0
/* INFORMATION & ANALYSIS CENTER (IAC)            RAPID DATA
/* S/V CLOCKS ARE ALIGNED TO GNSS TIME                      
/* G:C1WC2W R:C1PC2P E:C1XC5X C:C2IC6I J:C1CC2S             
/* PCV:IGS14_2080 OL/AL:FES2004  NONE     YN ORB:CoN CLK:CoN
*  2019 12 10  6  0  0.00000000
PC02   4403.248843  41910.408267    190.522194    686.143208
PC03 -14735.356801  39521.082241   -596.759971    164.860858
PC04 -39632.204372  14404.669060   -604.096934   -428.529956
PC05  21946.227217  36008.037587    451.789639   -213.391937
PC06 -14796.900026  21083.074206  33669.770605    290.738974
PC07 -23483.101819  34555.461465  -7148.514326    180.765182
PC08  -6481.928112  33232.346311 -24828.301988    -51.928832
PC09   2883.468439  26115.668184  33267.145697    176.801146
PC10 -10086.005611  35580.569423 -20435.025085   -446.728390
PC11 -17631.446122   4497.640942 -21111.932557    -51.505671
PC12 -24532.911945 -10967.698913  -7553.153316    303.301463
PC13   3891.900612  40275.125770 -11290.859104    148.466162
PC14 -24571.046837  13193.101285   1613.739386    358.415084
PC16 -11814.881749  21618.145114  34228.633039   -940.996377
PC19  19277.349927 -17363.651750 -10247.921384    266.799085
PC20  26014.723388  -7350.777832   6881.454900   -397.278665
PC21 -17507.459459  -7363.939043 -20441.648873    118.921099
PC22   1178.876003 -17444.054735 -21747.932156   -491.902787
PC23    866.017683  27500.885052  -4639.260163   -870.168944
PC24 -16233.730339   3914.750657  22352.916012   -883.146571
PC25 -10158.734403  22858.418420  12350.211979   -442.109505
PC26 -12656.249284 -15730.598968  19276.215924    491.028481
PC27  22156.877989  16929.500186  -1312.014771    239.890520
PC28   8199.283004  20426.101274 -17139.792863    230.934367
PC29  10010.386395 -12416.767369  22898.569446    157.619812
PC30  23322.327552   2842.096625  15075.744712    237.708765
PC32  17543.387202   7273.923353  20450.497649   -857.232587
PC33 -19248.357232  17458.724548  10187.657939   -653.918402
PC34 -23171.429789  -2580.912742 -15320.401468   -299.181769
PC35  -8727.618509 -20160.035413  17198.143014   -642.199386
PC36  10757.548953 -22510.368284 -12475.033839   -878.733925
PC37  12032.175153  16526.271613 -18966.915446   -876.691477
PE01 -19007.139082   3942.409279  22350.982572   -749.255044
PE02  19030.184285  -4045.420704 -22308.312807     97.678763
PE03  29525.207634    591.013951   1907.271926   -242.209280
PE04 -22373.397973  11612.909168  15513.017922   -422.247143
PE05  19455.179570  12590.001461  18409.089018   -424.102947
PE07   1921.576779 -17154.031057 -24047.202836   -310.658765
PE08  22140.228822 -11777.313763 -15721.214525   6251.343940
PE09  -1754.396561  17022.546843  24149.550488   6226.162095
PE11   4832.760342  25485.739448 -14264.845275    300.555662
PE12 -11304.414057  12353.197958 -24401.463744   6058.903455
PE13  -4808.351926 -25375.796388  14474.306022    396.223528
PE14 -11728.248007  17525.837301 -24876.366695   -825.020500
PE15  11008.163556 -12607.568340  24426.577080    884.901437
PE18   8845.690067 -12288.769694  17754.245558   -920.705370
PE19 -29265.894426  -1974.184952  -3966.356997     -2.507647
PE21  -8776.738420 -16146.854300  23207.692420   -570.516092
PE24  -6763.823450  26847.355482 -10445.398292   5723.863448
PE25   8702.145981  16226.096063 -23165.725578   -498.033789
PE26 -17787.937403 -23292.819545  -4185.828789   3781.062344
PE27   6666.862592 -26895.532475  10428.572344    328.209378
PE30  18306.623766 -21669.943685  -8482.147518   4317.693108
PE31 -18152.727687  21804.065816   8451.756031   -470.859484
PE33 -20393.194961  -7592.463054 -20055.847729   -471.550962
PE36  17843.336444  23274.113814   4007.933760    626.216814
PG01  14763.028083  -1509.527823  21839.563862   -224.799803
PG02 -13949.935749 -19969.693875 -10087.853124   -363.392568
PG03  21716.115854 -11328.662105  10099.994466    -50.323948
PG05 -14317.070554  -7132.441444 -21362.716533     -4.502376
PG06  -5973.205273 -25850.947285    883.340348   -149.116887
PG07   7787.528455 -18559.480751 -16798.257554   -166.739827
PG08  26033.116614   5492.075335   2072.165927    -16.235194
PG09  16402.098690  -9407.162779 -18709.476215   -104.403958
PG10  -7239.846959  21044.758854  14389.015755   -166.556108
PG11  18247.929836   -883.108153  18680.066976   -423.758267
PG12 -21646.411405   6320.908396  13679.895700    174.795747
PG13 -22521.927058 -13290.193700  -4994.258060    -27.613521
PG14  13126.235204  16926.553719  16145.429113    -45.712169
PG15 -26479.422806  -2969.468651   2275.911999   -266.753503
PG16  12252.403970   9023.416537 -22003.763395   -101.501932
PG17  -2085.960134 -15910.004184  21605.058741    178.058073
PG18  16373.117698   7377.776718  19096.770166    105.703979
PG19 -10021.560286 -16717.763172  17742.540151   -228.379577
PG20 -13788.371472  22189.509238   4054.569077    527.628988
PG21  -3662.251123  21717.063518 -14204.077063    -73.201768
PG22  20473.430866  -4784.539799  16385.638735   -776.731218
PG23  23672.164084  -2693.384368 -11782.844773   -150.487824
PG24 -16192.746477   -334.239628  20917.411489     -6.013452
PG25 -19674.548882  17531.756795   1593.732579    -17.392047
PG26   4363.584249  16460.266160 -20352.713802    102.423003
PG27  21823.165302  12514.648371  -9116.373513   -145.789800
PG28   7906.349773 -20208.155056  16006.065461    751.326479
PG29 -17489.034797   6962.813289 -18776.011374     22.457616
PG30    477.557707 -25257.341734  -7844.326084   -102.533374
PG31   6921.948583  25322.776351  -1742.290106     -8.790770
PG32   3320.863713  16191.465110  20876.825937    150.915707
PJ01 -30485.866812  28143.271086  12735.525406   -328.416786
PJ02 -29456.482761  27009.425389  18320.936002     -0.274839
PJ03 -26760.516926  16966.149426 -23160.867278     -8.930316
PJ07 -25394.185983  33652.138499     26.359600     -0.031738
PR01  19945.787804 -11333.754508 -11145.625614     53.898017
PR02    498.786118 -11317.040349 -22828.011833    401.707307
PR03 -17137.985467  -4449.968359 -18307.121320      6.228124
PR05 -18346.702968  11475.477694  13487.412071     40.944276
PR07  17620.314018   4185.844032  18009.495225    -30.530133
PR08  24799.973854  -4884.040879   3533.061543     13.887130
PR09   -302.701164  22836.779668 -11413.733999    105.478125
PR11  12444.123206  -7301.493395 -21007.362492     17.170028
PR12  10194.072108 -21515.278083  -9162.716983     86.590852
PR13   1827.610948 -23888.195531   8744.556655    -32.068760
PR14  -7258.754748 -12139.473953  21239.458165     45.908631
PR15 -12252.342937   6411.075673  21456.439307    105.139154
PR16  -9759.543889  21766.060860   8844.270315     -0.363653
PR17 -18497.818331 -17505.366261  -1786.426350    282.605780
PR18 -17580.192725  -6813.014803 -17135.050061     17.447938
PR19  -7632.520266   7069.910430 -23283.890675    -68.168095
PR20   8302.897602  18736.723220 -15200.892430   -398.442899
PR21  18656.903140  17167.735888   2656.152961    -90.664503
PR22  16405.474855   4555.629930  19052.038126     -4.859504
PR23   2503.538397 -11853.742758  22446.330934    272.220030
PR26   5613.232332  17220.726686 -17929.962312     14.339255
EOF
